[Satellite]
VERSION=1.1
NAME=O3B FM12
NICKNAME=O3B FM12
TLE1=1 40350U 14083C   15051.50323221 -.00000025  00000-0  00000+0 0  9995
TLE2=2 40350   0.0296 344.7950 0001883 343.3769  31.8084  5.00117183  3203
